OBJECT_NAME,OBJECT_ID,EPOCH,MEAN_MOTION,ECCENTRICITY,INCLINATION,RA_OF_ASC_NODE,ARG_OF_PERICENTER,MEAN_ANOMALY,EPHEMERIS_TYPE,CLASSIFICATION_TYPE,NORAD_CAT_ID,ELEMENT_SET_NO,REV_AT_EPOCH,BSTAR,MEAN_MOTION_DOT,MEAN_MOTION_DDOT
SKYSAT-C1,2016-040C,2026-07-17T01:01:50.629440,15.36766876,.00002619,96.9547,228.1510,236.3178,123.8043,0,U,41601,999,56245,.14289609E-3,.5058E-4,0
LAPAN-A3,2016-040E,2026-07-17T22:20:48.873408,15.33287899,.00082621,97.1506,194.0729,264.0845,95.9457,0,U,41603,999,55952,.55476115E-4,.1711E-4,0
GAOFEN-3,2016-049A,2026-07-17T22:58:18.476256,14.42218397,.00017507,98.4013,206.2792,82.6083,277.5305,0,U,41727,999,52308,-.42388398E-4,-.183E-5,0
SKYSAT-C4,2016-058B,2026-07-17T01:08:12.622848,15.49475207,.0003478,96.9161,218.5856,114.9854,245.1760,0,U,41771,999,55009,.18273E-3,.9969E-4,0
SKYSAT-C5,2016-058C,2026-07-17T02:28:48.362592,15.33734076,.0002753,97.0451,237.4000,155.5860,204.5514,0,U,41772,999,54833,.11912E-3,.3812E-4,0
SKYSAT-C2,2016-058D,2026-07-17T07:07:48.027360,15.42708898,.0001114,97.0158,219.2705,343.1238,16.9973,0,U,41773,999,54969,.15146E-3,.6528E-4,0
SKYSAT-C3,2016-058E,2026-07-17T00:54:03.865536,15.53761650,.00026234,96.8991,227.7582,130.7873,229.3610,0,U,41774,999,55074,.2266722E-3,.14444E-3,0
ALSAT-1B,2016-059C,2026-07-17T23:01:32.249856,14.72294890,.00104717,97.7752,206.3957,121.9628,238.2600,0,U,41785,999,52510,-.5038619E-5,-.79E-6,0
PATHFINDER 1,2016-059E,2026-07-17T22:51:02.787840,14.67694949,.00299095,97.8178,196.8416,107.3559,253.0921,0,U,41787,999,52422,.53604846E-4,.26E-5,0
SCATSAT 1,2016-059H,2026-07-17T18:45:26.904960,14.79590730,.00553946,98.1176,262.8613,148.3439,212.1123,0,U,41790,999,10611,.85533059E-4,.6E-5,0
GOKTURK 1A,2016-073A,2026-07-17T21:22:19.648416,14.62794967,.00014314,98.1210,93.0786,81.4747,278.6617,0,U,41875,999,51331,.82637412E-4,.375E-5,0
RESOURCESAT-2A,2016-074A,2026-07-17T21:33:32.770080,14.21609556,.00022365,98.7519,272.1499,21.8555,338.2717,0,U,41877,999,49866,.12475579E-3,.229E-5,0
CARTOSAT-2D,2017-008A,2026-07-17T23:34:57.916992,15.19293702,.00062151,97.4084,257.7104,131.1831,228.9941,0,U,41948,999,52225,.68209179E-4,.1372E-4,0
SENTINEL-2B,2017-013A,2026-07-17T23:26:30.629760,14.30815236,.00012186,98.5684,273.3151,92.0641,268.0681,0,U,42063,999,48904,.5434685E-5,-.29E-6,0
CARTOSAT-2E,2017-036C,2026-07-17T22:25:46.985376,15.19264525,.00035556,97.4255,258.2272,177.3894,182.7360,0,U,42767,999,50281,.63310802E-4,.1267E-4,0
FORMOSAT-5,2017-049A,2026-07-17T22:45:36.289152,14.50908234,.00111419,98.2245,273.5734,355.3173,4.7916,0,U,42920,999,47113,.19520294E-4,.33E-6,0
SENTINEL-5P,2017-064A,2026-07-17T20:43:03.767520,14.19523493,.00011611,98.7929,140.7776,94.1328,265.9981,0,U,42969,999,45391,.2540126E-4,.9E-7,0
SKYSAT-C11,2017-068A,2026-07-17T22:29:10.631904,15.59422768,.00012891,97.4388,349.1483,155.4215,204.7103,0,U,42987,999,48803,.21849398E-3,.17166E-3,0
SKYSAT-C10,2017-068B,2026-07-17T22:23:32.387136,15.35149496,.00015248,97.4547,336.0968,111.3925,248.7481,0,U,42988,999,48707,.17711027E-3,.5959E-4,0
SKYSAT-C9,2017-068C,2026-07-17T22:25:59.057184,15.42254918,.00084118,97.4467,337.3319,35.9309,324.2502,0,U,42989,999,48749,.16825571E-3,.7151E-4,0
SKYSAT-C8,2017-068D,2026-07-17T22:07:55.122528,15.37523384,.00012391,97.4564,336.0041,103.5918,256.5464,0,U,42990,999,48703,.1619242E-3,.5875E-4,0
SKYSAT-C7,2017-068E,2026-07-17T22:00:05.954976,15.37473008,.00055053,97.4575,336.9903,11.9593,348.1781,0,U,42991,999,48709,.15614452E-3,.5655E-4,0
SKYSAT-C6,2017-068F,2026-07-17T20:48:44.417664,15.34196805,.00050529,97.4612,336.7817,82.8828,277.2989,0,U,42992,999,48702,.15546302E-3,.5065E-4,0
CARTOSAT-2F,2018-004A,2026-07-17T23:12:50.690304,15.19185208,.00024315,97.4768,258.2984,127.8594,232.2861,0,U,43111,999,47200,.10970417E-3,.2239E-4,0
GAOFEN-1 02,2018-031A,2026-07-17T22:20:30.971328,14.76472850,.0001472,98.0511,261.3694,269.4236,90.6805,0,U,43259,999,44723,.30020893E-4,.157E-5,0
GAOFEN-1 03,2018-031B,2026-07-17T23:26:35.410272,14.76464634,.00021912,98.0502,261.2701,7.5378,352.5865,0,U,43260,999,44723,.53560058E-4,.321E-5,0
GAOFEN-1 04,2018-031D,2026-07-17T22:51:36.560736,14.76441243,.00010669,98.0511,261.4407,50.7509,309.3795,0,U,43262,999,44722,.11919577E-3,.778E-5,0
SENTINEL-3B,2018-039A,2026-07-17T20:04:29.573760,14.26736832,.000121,98.6235,265.9266,119.6038,240.5263,0,U,43437,999,42849,.38405298E-4,.49E-6,0
GAOFEN-5 01,2018-043A,2026-07-17T21:19:53.721408,14.60624351,.00019415,98.4592,171.1238,26.2193,333.9104,0,U,43461,999,43617,.37552599E-4,.134E-5,0
GAOFEN-6,2018-048A,2026-07-17T23:24:17.256672,14.76384403,.00121023,98.0954,261.6835,73.6160,286.6379,0,U,43484,999,43793,.3149632E-5,-.31E-6,0
